NORAD_CAT_ID,OBJECT_NAME,OBJECT_TYPE,EPOCH,MEAN_MOTION,ECCENTRICITY,INCLINATION,RA_OF_ASC_NODE,ARG_OF_PERICENTER,MEAN_ANOMALY,BSTAR,MEAN_MOTION_DOT,MEAN_MOTION_DDOT,TLE_LINE0,TLE_LINE1,TLE_LINE2,SEMIMAJOR_AXIS,PERIOD,APOGEE,PERIGEE,DECAYED
50176.0,STARLINK-3293,PAYLOAD,2023-01-28 03:22:50,15.08835819,0.0001012,53.2158,311.2905,92.8554,267.2553,0.00063418,9.818e-05,0.0,0 STARLINK-3293,1 50176U 21125W   23028.14086302  .00009818  00000-0  63418-3 0  9990,2 50176  53.2158 311.2905 0001012  92.8554 267.2553 15.08835819 65068,6917.893,95.438,540.458,539.058,0.0
50176.0,STARLINK-3293,PAYLOAD,2023-01-29 04:49:01,15.08828352,0.0001004,53.2156,306.5336,89.8478,270.2629,6.458e-05,7.4e-06,0.0,0 STARLINK-3293,1 50176U 21125W   23029.20071293  .00000740  00000-0  64580-4 0  9998,2 50176  53.2156 306.5336 0001004  89.8478 270.2629 15.08828352 62095,6917.916,95.438,540.476,539.086,0.0
50176.0,STARLINK-3293,PAYLOAD,2023-01-29 19:07:29,15.08845775,0.00011,53.2172,303.8575,91.5675,268.5443,0.00038047,5.773e-05,0.0,0 STARLINK-3293,1 50176U 21125W   23029.79686870  .00005773  00000-0  38047-3 0  9994,2 50176  53.2172 303.8575 0001100  91.5675 268.5443 15.08845775 62186,6917.863,95.437,540.489,538.967,0.0
50176.0,STARLINK-3293,PAYLOAD,2023-01-30 03:04:24,15.08861937,0.0001,53.2156,302.3706,88.8752,271.2355,0.00065802,0.00010206,0.0,0 STARLINK-3293,1 50176U 21125W   23030.12806200  .00010206  00000-0  65802-3 0  9990,2 50176  53.2156 302.3706 0001000  88.8752 271.2355 15.08861937 62239,6917.813,95.436,540.37,538.987,0.0
50176.0,STARLINK-3293,PAYLOAD,2023-01-30 22:09:02,15.0884763,0.0001156,53.2158,298.8018,76.6915,283.4205,5.618e-05,6.07e-06,0.0,0 STARLINK-3293,1 50176U 21125W   23030.92294400  .00000607  00000-0  56180-4 0  9995,2 50176  53.2158 298.8018 0001156  76.6915 283.4205 15.08847630 62350,6917.857,95.437,540.522,538.922,0.0
50176.0,STARLINK-3293,PAYLOAD,2023-01-31 02:55:11,15.08855836,0.0001091,53.2152,297.9097,93.1702,266.9415,0.00034928,5.278e-05,0.0,0 STARLINK-3293,1 50176U 21125W   23031.12166085  .00005278  00000-0  34928-3 0  9999,2 50176  53.2152 297.9097 0001091  93.1702 266.9415 15.08855836 62386,6917.832,95.437,540.452,538.942,0.0
50176.0,STARLINK-3293,PAYLOAD,2023-01-31 17:13:40,15.08844806,0.0001478,53.2147,295.2331,78.8691,281.2467,0.00056599,8.732e-05,0.0,0 STARLINK-3293,1 50176U 21125W   23031.71782517  .00008732  00000-0  56599-3 0  9994,2 50176  53.2147 295.2331 0001478  78.8691 281.2467 15.08844806 62470,6917.866,95.437,540.753,538.708,0.0
50176.0,STARLINK-3293,PAYLOAD,2023-02-01 12:18:17,15.08841029,0.0001782,53.2128,291.6669,74.7772,285.3417,0.00023653,3.478e-05,0.0,0 STARLINK-3293,1 50176U 21125W   23032.51270473  .00003478  00000-0  23653-3 0  9993,2 50176  53.2128 291.6669 0001782  74.7772 285.3417 15.08841029 65721,6917.877,95.437,540.975,538.509,0.0
50176.0,STARLINK-3293,PAYLOAD,2023-02-02 02:36:45,15.08843988,0.0001153,53.2157,288.9871,111.7258,248.3857,0.00020977,3.053e-05,0.0,0 STARLINK-3293,1 50176U 21125W   23033.10886296  .00003053  00000-0  20977-3 0  9990,2 50176  53.2157 288.9871 0001153 111.7258 248.3857 15.08843988 65813,6917.868,95.437,540.531,538.936,0.0
50176.0,STARLINK-3293,PAYLOAD,2023-02-02 16:55:13,15.08847903,0.0001536,53.214,286.3095,112.494,247.6215,0.00028579,4.264e-05,0.0,0 STARLINK-3293,1 50176U 21125W   23033.70502293  .00004264  00000-0  28579-3 0  9999,2 50176  53.2140 286.3095 0001536 112.4940 247.6215 15.08847903 62779,6917.856,95.437,540.784,538.659,0.0
50176.0,STARLINK-3293,PAYLOAD,2023-02-03 02:27:32,15.08852484,0.0001602,53.2137,284.5255,112.1833,247.9329,0.00051081,7.854e-05,0.0,0 STARLINK-3293,1 50176U 21125W   23034.10246128  .00007854  00000-0  51081-3 0  9998,2 50176  53.2137 284.5255 0001602 112.1833 247.9329 15.08852484 65968,6917.842,95.437,540.815,538.599,0.0
50176.0,STARLINK-3293,PAYLOAD,2023-02-03 16:46:01,15.08845973,0.0002953,53.21,281.8485,105.6367,254.4951,0.00021009,3.057e-05,0.0,0 STARLINK-3293,1 50176U 21125W   23034.69862434  .00003057  00000-0  21009-3 0  9994,2 50176  53.2100 281.8485 0002953 105.6367 254.4951 15.08845973 62924,6917.862,95.437,541.77,537.684,0.0
50176.0,STARLINK-3293,PAYLOAD,2023-02-04 21:22:57,15.0884439,0.0001623,53.2138,276.4998,86.9507,273.1671,0.00063977,9.91e-05,0.0,0 STARLINK-3293,1 50176U 21125W   23035.89094815  .00009910  00000-0  63977-3 0  9991,2 50176  53.2138 276.4998 0001623  86.9507 273.1671 15.08844390 66231,6917.867,95.437,540.855,538.609,0.0
50176.0,STARLINK-3293,PAYLOAD,2023-02-04 22:58:20,15.088545,0.0001325,53.2142,276.2025,82.6284,277.4859,0.00040813,6.216e-05,0.0,0 STARLINK-3293,1 50176U 21125W   23035.95718192  .00006216  00000-0  40813-3 0  9999,2 50176  53.2142 276.2025 0001325  82.6284 277.4859 15.08854500 63112,6917.836,95.437,540.618,538.784,0.0
50176.0,STARLINK-3293,PAYLOAD,2023-02-05 00:33:43,15.08855977,0.0001358,53.2144,275.9051,82.6567,277.4579,0.00060575,9.37e-05,0.0,0 STARLINK-3293,1 50176U 21125W   23036.02342267  .00009370  00000-0  60575-3 0  9995,2 50176  53.2144 275.9051 0001358  82.6567 277.4579 15.08855977 66255,6917.832,95.437,540.636,538.757,0.0
50176.0,STARLINK-3293,PAYLOAD,2023-02-05 19:38:21,15.08839797,0.0001199,53.214,272.3365,79.1533,280.9594,9.0294e-05,1.149e-05,0.0,0 STARLINK-3293,1 50176U 21125W   23036.81830744  .00001149  00000-0  90294-4 0  9992,2 50176  53.2140 272.3365 0001199  79.1533 280.9594 15.08839797 63241,6917.881,95.438,540.575,538.917,0.0
50176.0,STARLINK-3293,PAYLOAD,2023-02-05 22:49:08,15.08840144,0.0001141,53.2139,271.7417,94.7123,265.3999,0.00010575,1.396e-05,0.0,0 STARLINK-3293,1 50176U 21125W   23036.95078710  .00001396  00000-0  10575-3 0  9991,2 50176  53.2139 271.7417 0001141  94.7123 265.3999 15.08840144 66398,6917.88,95.438,540.534,538.956,0.0
50176.0,STARLINK-3293,PAYLOAD,2023-02-06 01:59:54,15.08838021,0.0001079,53.214,271.1469,90.436,269.6755,0.00024503,3.614e-05,0.0,0 STARLINK-3293,1 50176U 21125W   23037.08326794  .00003614  00000-0  24503-3 0  9995,2 50176  53.2140 271.1469 0001079  90.4360 269.6755 15.08838021 66418,6917.886,95.438,540.498,539.005,0.0
50176.0,STARLINK-3293,PAYLOAD,2023-02-06 21:04:32,15.08846126,0.0001043,53.2137,267.5782,91.1409,268.9702,0.00047326,7.253e-05,0.0,0 STARLINK-3293,1 50176U 21125W   23037.87814826  .00007253  00000-0  47326-3 0  9991,2 50176  53.2137 267.5782 0001043  91.1409 268.9702 15.08846126 63409,6917.862,95.437,540.448,539.005,0.0
50176.0,STARLINK-3293,PAYLOAD,2023-02-07 00:15:18,15.08850727,0.0001018,53.2135,266.9833,88.3837,271.7272,0.00057929,8.946e-05,0.0,0 STARLINK-3293,1 50176U 21125W   23038.01062694  .00008946  00000-0  57929-3 0  9996,2 50176  53.2135 266.9833 0001018  88.3837 271.7272 15.08850727 66557,6917.848,95.437,540.417,539.008,0.0
50176.0,STARLINK-3293,PAYLOAD,2023-02-07 20:55:19,15.08844093,0.0001064,53.214,263.1174,84.4854,275.6259,0.00020409,2.962e-05,0.0,0 STARLINK-3293,1 50176U 21125W   23038.87174800  .00002962  00000-0  20409-3 0  9998,2 50176  53.2140 263.1174 0001064  84.4854 275.6259 15.08844093 66688,6917.868,95.437,540.469,538.997,0.0
50176.0,STARLINK-3293,PAYLOAD,2023-02-07 22:30:42,15.0884556,0.0001256,53.2149,262.8203,76.1839,283.9292,0.00023618,3.473e-05,0.0,0 STARLINK-3293,1 50176U 21125W   23038.93798848  .00003473  00000-0  23618-3 0  9992,2 50176  53.2149 262.8203 0001256  76.1839 283.9292 15.08845560 63563,6917.863,95.437,540.597,538.86,0.0
50176.0,STARLINK-3293,PAYLOAD,2023-02-08 20:46:06,15.08842004,0.0001215,53.2146,258.6522,101.5998,258.5131,0.00015254,2.141e-05,0.0,0 STARLINK-3293,1 50176U 21125W   23039.86534751  .00002141  00000-0  15254-3 0  9994,2 50176  53.2146 258.6522 0001215 101.5998 258.5131 15.08842004 66834,6917.874,95.437,540.58,538.899,0.0
50176.0,STARLINK-3293,PAYLOAD,2023-02-08 23:56:52,15.08844657,0.000127,53.2138,258.06,96.3345,263.7792,0.0001668,2.368e-05,0.0,0 STARLINK-3293,1 50176U 21125W   23039.99782861  .00002368  00000-0  16680-3 0  9990,2 50176  53.2138 258.0600 0001270  96.3345 263.7792 15.08844657 63726,6917.866,95.437,540.61,538.853,0.0
50176.0,STARLINK-3293,PAYLOAD,2023-02-09 09:29:11,15.08838986,0.0001386,53.2134,256.2774,102.125,257.9897,7.8818e-05,9.67e-06,0.0,0 STARLINK-3293,1 50176U 21125W   23040.39527014  .00000967  00000-0  78818-4 0  9998,2 50176  53.2134 256.2774 0001386 102.1250 257.9897 15.08838986 66916,6917.883,95.438,540.707,538.79,0.0
50176.0,STARLINK-3293,PAYLOAD,2023-02-09 20:36:53,15.08841728,0.0001101,53.2136,254.1949,99.0469,261.0648,7.5183e-05,9.09e-06,0.0,0 STARLINK-3293,1 50176U 21125W   23040.85895055  .00000909  00000-0  75183-4 0  9990,2 50176  53.2136 254.1949 0001101  99.0469 261.0648 15.08841728 63858,6917.875,95.437,540.502,538.978,0.0
50176.0,STARLINK-3293,PAYLOAD,2023-02-09 23:47:39,15.08847347,0.0001052,53.214,253.599,94.9165,265.1947,0.00016365,2.318e-05,0.0,0 STARLINK-3293,1 50176U 21125W   23040.99142798  .00002318  00000-0  16365-3 0  9996,2 50176  53.2140 253.5990 0001052  94.9165 265.1947 15.08847347 67005,6917.858,95.437,540.451,538.995,0.0
50176.0,STARLINK-3293,PAYLOAD,2023-02-10 15:41:31,15.08839749,0.0001457,53.2128,250.6283,77.9026,282.213,0.00014077,1.953e-05,0.0,0 STARLINK-3293,1 50176U 21125W   23041.65383500  .00001953  00000-0  14077-3 0  9990,2 50176  53.2128 250.6283 0001457  77.9026 282.2130 15.08839749 67102,6917.881,95.438,540.754,538.738,0.0
50176.0,STARLINK-3293,PAYLOAD,2023-02-10 20:27:40,15.08846808,0.0001227,53.2136,249.7349,88.7847,271.3286,0.00020932,3.046e-05,0.0,0 STARLINK-3293,1 50176U 21125W   23041.85255074  .00003046  00000-0  20932-3 0  9998,2 50176  53.2136 249.7349 0001227  88.7847 271.3286 15.08846808 67137,6917.86,95.437,540.573,538.876,0.0
50176.0,STARLINK-3293,PAYLOAD,2023-02-11 20:18:27,15.08841626,0.000117,53.2137,245.2745,100.7209,259.3915,0.00012305,1.671e-05,0.0,0 STARLINK-3293,1 50176U 21125W   23042.84615327  .00001671  00000-0  12305-3 0  9996,2 50176  53.2137 245.2745 0001170 100.7209 259.3915 15.08841626 67287,6917.875,95.437,540.55,538.931,0.0
